[{"OBJECT_NAME":"STARLINK-5277","OBJECT_ID":"2023-010A","EPOCH":"2026-03-09T22:55:25.480992","MEAN_MOTION":14.98334733,"ECCENTRICITY":0.000306,"INCLINATION":70.0003,"RA_OF_ASC_NODE":43.87,"ARG_OF_PERICENTER":270.0377,"MEAN_ANOMALY":90.0431,"EPHEMERIS_TYPE":0,"CLASSIFICATION_TYPE":"U","NORAD_CAT_ID":55269,"ELEMENT_SET_NO":999,"REV_AT_EPOCH":17310,"BSTAR":3.0717251e-5,"MEAN_MOTION_DOT":2.74e-6,"MEAN_MOTION_DDOT":0},{"OBJECT_NAME":"SITRO-AIS 17","OBJECT_ID":"2024-199BG","EPOCH":"2026-03-09T22:41:43.974240","MEAN_MOTION":14.97395626,"ECCENTRICITY":0.0007298,"INCLINATION":97.3319,"RA_OF_ASC_NODE":274.6922,"ARG_OF_PERICENTER":55.1829,"MEAN_ANOMALY":305.008,"EPHEMERIS_TYPE":0,"CLASSIFICATION_TYPE":"U","NORAD_CAT_ID":61789,"ELEMENT_SET_NO":999,"REV_AT_EPOCH":11718,"BSTAR":0.00028776531,"MEAN_MOTION_DOT":3.293e-5,"MEAN_MOTION_DDOT":0}]
